start=new Date('2023-05-06T00:00:00.000Z').valueOf();
sats=[{"ELEMENT_SET_NO":"999","RA_OF_ASC_NODE":"247.3773","APOAPSIS":"562.819","OBJECT_ID":"2023-020U","NORAD_CAT_ID":"55587","MEAN_ANOMALY":"84.0222","CLASSIFICATION_TYPE":"U","EPHEMERIS_TYPE":"0","CENTER_NAME":"EARTH","PERIAPSIS":"560.342","DECAY_DATE":null,"LAUNCH_DATE":"2023-02-12","REF_FRAME":"TEME","COUNTRY_CODE":"US","OBJECT_NAME":"STARLINK-5727","ECCENTRICITY":"0.00017840","TLE_LINE1":"1 55587U 23020U   23125.72806228  .00000646  00000-0  64181-4 0  9995","TLE_LINE2":"2 55587  43.0015 247.3773 0001784 276.0417  84.0222 15.01724480 12660","MEAN_MOTION":"15.01724480","SEMIMAJOR_AXIS":"6939.716","FILE":"3901907","RCS_SIZE":"LARGE","SITE":"AFETR","MEAN_MOTION_DOT":"0.00000646","BSTAR":"0.00006418100000","EPOCH":"2023-05-05T17:28:24.580992","MEAN_MOTION_DDOT":"0.0000000000000","GP_ID":"231293455","PERIOD":"95.890","TIME_SYSTEM":"UTC","ARG_OF_PERICENTER":"276.0417","OBJECT_TYPE":"PAYLOAD","INCLINATION":"43.0015","MEAN_ELEMENT_THEORY":"SGP4","REV_AT_EPOCH":"1266"},{"RA_OF_ASC_NODE":"250.6282","ELEMENT_SET_NO":"999","APOAPSIS":"560.614","MEAN_ANOMALY":"71.4062","CLASSIFICATION_TYPE":"U","NORAD_CAT_ID":"55588","OBJECT_ID":"2023-020V","EPHEMERIS_TYPE":"0","CENTER_NAME":"EARTH","PERIAPSIS":"557.491","DECAY_DATE":null,"REF_FRAME":"TEME","LAUNCH_DATE":"2023-02-12","COUNTRY_CODE":"US","OBJECT_NAME":"STARLINK-5728","ECCENTRICITY":"0.00022510","TLE_LINE2":"2 55588  43.0010 250.6282 0002251 288.6536  71.4062 15.02545311 12611","TLE_LINE1":"1 55588U 23020V   23125.58698032 -.00001912  00000-0 -12648-3 0  9991","MEAN_MOTION":"15.02545311","FILE":"3901651","SEMIMAJOR_AXIS":"6937.188","RCS_SIZE":"LARGE","MEAN_MOTION_DDOT":"0.0000000000000","EPOCH":"2023-05-05T14:05:15.099648","SITE":"AFETR","BSTAR":"-0.00012648000000","MEAN_MOTION_DOT":"-0.00001912","GP_ID":"231287279","PERIOD":"95.837","ARG_OF_PERICENTER":"288.6536","TIME_SYSTEM":"UTC","OBJECT_TYPE":"PAYLOAD","INCLINATION":"43.0010","REV_AT_EPOCH":"1261","MEAN_ELEMENT_THEORY":"SGP4"},{"LAUNCH_DATE":"2023-02-12","REF_FRAME":"TEME","DECAY_DATE":null,"OBJECT_NAME":"STARLINK-5697","COUNTRY_CODE":"US","PERIAPSIS":"557.702","NORAD_CAT_ID":"55589","OBJECT_ID":"2023-020W","MEAN_ANOMALY":"80.8108","CLASSIFICATION_TYPE":"U","APOAPSIS":"560.487","CENTER_NAME":"EARTH","EPHEMERIS_TYPE":"0","RA_OF_ASC_NODE":"251.7519","ELEMENT_SET_NO":"999","INCLINATION":"43.0008","OBJECT_TYPE":"PAYLOAD","MEAN_ELEMENT_THEORY":"SGP4","REV_AT_EPOCH":"1258","TIME_SYSTEM":"UTC","ARG_OF_PERICENTER":"279.2507","PERIOD":"95.838","GP_ID":"231293360","MEAN_MOTION":"15.02531777","TLE_LINE2":"2 55589  43.0008 251.7519 0002007 279.2507  80.8108 15.02531777 12589","TLE_LINE1":"1 55589U 23020W   23125.39309780  .00001589  00000-0  13269-3 0  9998","ECCENTRICITY":"0.00020070","MEAN_MOTION_DOT":"0.00001589","SITE":"AFETR","BSTAR":"0.00013269000000","EPOCH":"2023-05-05T09:26:03.649920","MEAN_MOTION_DDOT":"0.0000000000000","FILE":"3901907","RCS_SIZE":"LARGE","SEMIMAJOR_AXIS":"6937.230"},{"PERIAPSIS":"558.176","REF_FRAME":"TEME","LAUNCH_DATE":"2023-02-12","DECAY_DATE":null,"OBJECT_NAME":"STARLINK-5762","COUNTRY_CODE":"US","RA_OF_ASC_NODE":"249.8652","ELEMENT_SET_NO":"999","MEAN_ANOMALY":"88.2135","CLASSIFICATION_TYPE":"U","NORAD_CAT_ID":"55590","OBJECT_ID":"2023-020X","APOAPSIS":"559.898","CENTER_NAME":"EARTH","EPHEMERIS_TYPE":"0","ARG_OF_PERICENTER":"271.8565","TIME_SYSTEM":"UTC","INCLINATION":"43.0014","OBJECT_TYPE":"PAYLOAD","MEAN_ELEMENT_THEORY":"SGP4","REV_AT_EPOCH":"1263","MEAN_MOTION":"15.02550382","TLE_LINE2":"2 55590  43.0014 249.8652 0001241 271.8565  88.2135 15.02550382 12636","TLE_LINE1":"1 55590U 23020X   23125.71438512 -.00003256  00000-0 -22598-3 0  9992","ECCENTRICITY":"0.00012410","MEAN_MOTION_DDOT":"0.0000000000000","EPOCH":"2023-05-05T17:08:42.874368","SITE":"AFETR","MEAN_MOTION_DOT":"-0.00003256","BSTAR":"-0.00022598000000","SEMIMAJOR_AXIS":"6937.172","FILE":"3901907","RCS_SIZE":"LARGE","PERIOD":"95.837","GP_ID":"231293367"},{"PERIAPSIS":"557.795","COUNTRY_CODE":"US","OBJECT_NAME":"STARLINK-5760","DECAY_DATE":null,"REF_FRAME":"TEME","LAUNCH_DATE":"2023-02-12","RA_OF_ASC_NODE":"249.9283","ELEMENT_SET_NO":"999","EPHEMERIS_TYPE":"0","CENTER_NAME":"EARTH","APOAPSIS":"560.312","MEAN_ANOMALY":"89.9102","CLASSIFICATION_TYPE":"U","NORAD_CAT_ID":"55591","OBJECT_ID":"2023-020Y","ARG_OF_PERICENTER":"270.1532","TIME_SYSTEM":"UTC","REV_AT_EPOCH":"1263","MEAN_ELEMENT_THEORY":"SGP4","OBJECT_TYPE":"PAYLOAD","INCLINATION":"43.0004","FILE":"3901907","RCS_SIZE":"LARGE","SEMIMAJOR_AXIS":"6937.189","EPOCH":"2023-05-05T17:21:29.783232","MEAN_MOTION_DDOT":"0.0000000000000","SITE":"AFETR","BSTAR":"0.00028027000000","MEAN_MOTION_DOT":"0.00003585","ECCENTRICITY":"0.00018140","TLE_LINE1":"1 55591U 23020Y   23125.72326138  .00003585  00000-0  28027-3 0  9990","TLE_LINE2":"2 55591  43.0004 249.9283 0001814 270.1532  89.9102 15.02545000 12632","MEAN_MOTION":"15.02545000","GP_ID":"231293364","PERIOD":"95.837"},{"GP_ID":"231287396","PERIOD":"95.838","ECCENTRICITY":"0.00019500","MEAN_MOTION":"15.02540433","TLE_LINE2":"2 55592  43.0003 250.5523 0001950 278.8079  81.2542 15.02540433 12615","TLE_LINE1":"1 55592U 23020Z   23125.57699120 -.00003259  00000-0 -22625-3 0  9996","SEMIMAJOR_AXIS":"6937.203","FILE":"3901653","RCS_SIZE":"LARGE","MEAN_MOTION_DDOT":"0.0000000000000","EPOCH":"2023-05-05T13:50:52.039680","MEAN_MOTION_DOT":"-0.00003259","SITE":"AFETR","BSTAR":"-0.00022625000000","OBJECT_TYPE":"PAYLOAD","INCLINATION":"43.0003","MEAN_ELEMENT_THEORY":"SGP4","REV_AT_EPOCH":"1261","ARG_OF_PERICENTER":"278.8079","TIME_SYSTEM":"UTC","APOAPSIS":"560.421","MEAN_ANOMALY":"81.2542","CLASSIFICATION_TYPE":"U","NORAD_CAT_ID":"55592","OBJECT_ID":"2023-020Z","EPHEMERIS_TYPE":"0","CENTER_NAME":"EARTH","ELEMENT_SET_NO":"999","RA_OF_ASC_NODE":"250.5523","DECAY_DATE":null,"REF_FRAME":"TEME","LAUNCH_DATE":"2023-02-12","COUNTRY_CODE":"US","OBJECT_NAME":"STARLINK-5759","PERIAPSIS":"557.715"},{"DECAY_DATE":null,"REF_FRAME":"TEME","LAUNCH_DATE":"2023-02-12","COUNTRY_CODE":"US","OBJECT_NAME":"STARLINK-5703","PERIAPSIS":"558.286","APOAPSIS":"559.920","CLASSIFICATION_TYPE":"U","MEAN_ANOMALY":"58.6093","OBJECT_ID":"2023-020AA","NORAD_CAT_ID":"55593","EPHEMERIS_TYPE":"0","CENTER_NAME":"EARTH","ELEMENT_SET_NO":"999","RA_OF_ASC_NODE":"252.0564","OBJECT_TYPE":"PAYLOAD","INCLINATION":"42.9990","MEAN_ELEMENT_THEORY":"SGP4","REV_AT_EPOCH":"1257","ARG_OF_PERICENTER":"301.4634","TIME_SYSTEM":"UTC","GP_ID":"231281590","PERIOD":"95.838","ECCENTRICITY":"0.00011780","TLE_LINE2":"2 55593  42.9990 252.0564 0001178 301.4634  58.6093 15.02528987 12577","MEAN_MOTION":"15.02528987","TLE_LINE1":"1 55593U 23020AA  23125.31885260  .00002478  00000-0  19850-3 0  9997","RCS_SIZE":"LARGE","FILE":"3901397","SEMIMAJOR_AXIS":"6937.238","EPOCH":"2023-05-05T07:39:08.864640","MEAN_MOTION_DDOT":"0.0000000000000","MEAN_MOTION_DOT":"0.00002478","SITE":"AFETR","BSTAR":"0.00019850000000"},{"ARG_OF_PERICENTER":"278.6853","TIME_SYSTEM":"UTC","INCLINATION":"43.0004","OBJECT_TYPE":"PAYLOAD","REV_AT_EPOCH":"1258","MEAN_ELEMENT_THEORY":"SGP4","MEAN_MOTION":"15.02530380","TLE_LINE2":"2 55594  43.0004 251.6120 0001513 278.6853  81.3818 15.02530380 12589","TLE_LINE1":"1 55594U 23020AB  23125.37423102  .00000814  00000-0  75299-4 0  9999","ECCENTRICITY":"0.00015130","EPOCH":"2023-05-05T08:58:53.560128","MEAN_MOTION_DDOT":"0.0000000000000","SITE":"AFETR","BSTAR":"0.00007529900000","MEAN_MOTION_DOT":"0.00000814","FILE":"3901654","SEMIMAJOR_AXIS":"6937.234","RCS_SIZE":"LARGE","PERIOD":"95.838","GP_ID":"231287436","PERIAPSIS":"558.049","REF_FRAME":"TEME","LAUNCH_DATE":"2023-02-12","DECAY_DATE":null,"OBJECT_NAME":"STARLINK-5750","COUNTRY_CODE":"US","RA_OF_ASC_NODE":"251.6120","ELEMENT_SET_NO":"999","MEAN_ANOMALY":"81.3818","CLASSIFICATION_TYPE":"U","NORAD_CAT_ID":"55594","OBJECT_ID":"2023-020AB","APOAPSIS":"560.148","CENTER_NAME":"EARTH","EPHEMERIS_TYPE":"0"},{"MEAN_ELEMENT_THEORY":"SGP4","REV_AT_EPOCH":"1255","INCLINATION":"43.0017","OBJECT_TYPE":"PAYLOAD","ARG_OF_PERICENTER":"280.6275","TIME_SYSTEM":"UTC","PERIOD":"95.838","GP_ID":"231281605","EPOCH":"2023-05-05T04:19:41.822688","MEAN_MOTION_DDOT":"0.0000000000000","SITE":"AFETR","BSTAR":"0.00000647300000","MEAN_MOTION_DOT":"-0.00000116","RCS_SIZE":"LARGE","FILE":"3901398","SEMIMAJOR_AXIS":"6937.223","TLE_LINE1":"1 55595U 23020AC  23125.18034517 -.00000116  00000-0  64730-5 0  9992","TLE_LINE2":"2 55595  43.0017 252.7312 0001199 280.6275  79.4432 15.02533822 12551","MEAN_MOTION":"15.02533822","ECCENTRICITY":"0.00011990","OBJECT_NAME":"STARLINK-5740","COUNTRY_CODE":"US","REF_FRAME":"TEME","LAUNCH_DATE":"2023-02-12","DECAY_DATE":null,"PERIAPSIS":"558.256","CENTER_NAME":"EARTH","EPHEMERIS_TYPE":"0","CLASSIFICATION_TYPE":"U","MEAN_ANOMALY":"79.4432","OBJECT_ID":"2023-020AC","NORAD_CAT_ID":"55595","APOAPSIS":"559.920","ELEMENT_SET_NO":"999","RA_OF_ASC_NODE":"252.7312"},{"MEAN_ELEMENT_THEORY":"SGP4","REV_AT_EPOCH":"1259","INCLINATION":"43.0001","OBJECT_TYPE":"PAYLOAD","ARG_OF_PERICENTER":"269.5346","TIME_SYSTEM":"UTC","PERIOD":"95.839","GP_ID":"231287407","EPOCH":"2023-05-05T10:31:25.624992","MEAN_MOTION_DDOT":"0.0000000000000","BSTAR":"0.00000591230000","SITE":"AFETR","MEAN_MOTION_DOT":"-0.00000124","SEMIMAJOR_AXIS":"6937.246","FILE":"3901654","RCS_SIZE":"LARGE","MEAN_MOTION":"15.02526312","TLE_LINE2":"2 55596  43.0001 251.2335 0001297 269.5346  90.5347 15.02526312 12597","TLE_LINE1":"1 55596U 23020AD  23125.43849103 -.00000124  00000-0  59123-5 0  9995","ECCENTRICITY":"0.00012970","OBJECT_NAME":"STARLINK-5729","COUNTRY_CODE":"US","REF_FRAME":"TEME","LAUNCH_DATE":"2023-02-12","DECAY_DATE":null,"PERIAPSIS":"558.212","CENTER_NAME":"EARTH","EPHEMERIS_TYPE":"0","MEAN_ANOMALY":"90.5347","CLASSIFICATION_TYPE":"U","NORAD_CAT_ID":"55596","OBJECT_ID":"2023-020AD","APOAPSIS":"560.011","ELEMENT_SET_NO":"999","RA_OF_ASC_NODE":"251.2335"}];
